{"type": "FeatureCollection", "features": [ {"type": "Feature", "properties": {"norad_id": 38054, "name": "COSMOS 2251 DEB", "group": "cosmos-2251-debris", "lat": -73.25391871903408, "lon": 146.69548334138076, "alt_km": 813.6745668145804, "timestamp": "2025-12-20T03:42:47.792270+00:00", "meta": {"OBJECT_NAME": "COSMOS 2251 DEB", "OBJECT_ID": "1993-036BRL", "EPOCH": "2025-12-19T04:17:14.300736", "MEAN_MOTION": 13.62371953, "ECCENTRICITY": 0.03577355, "INCLINATION": 73.9533, "RA_OF_ASC_NODE": 255.2542, "ARG_OF_PERICENTER": 232.0768, "MEAN_ANOMALY": 285.3471, "EPHEMERIS_TYPE": 0, "CLASSIFICATION_TYPE": "U", "NORAD_CAT_ID": 38054, "ELEMENT_SET_NO": 999, "REV_AT_EPOCH": 67267, "BSTAR": 0.0015341979, "MEAN_MOTION_DOT": 1.803e-05, "MEAN_MOTION_DDOT": 0}, "tle": {"line1": "1 38054U 93036BRL 25353.17863774  .00001803  00000+0  15342-2 0  9990", "line2": "2 38054  73.9533 255.2542 0357735 232.0768 285.3471 13.62371953672673"}}, "geometry": {"type": "Point", "coordinates": [146.69548334138076, -73.25391871903408]}}, {"type": "Feature", "properties": {"norad_id": 38055, "name": "COSMOS 2251 DEB", "group": "cosmos-2251-debris", "lat": 12.700625275752781, "lon": -164.09658926316175, "alt_km": 612.98792759768, "timestamp": "2025-12-20T03:42:47.792281+00:00", "meta": {"OBJECT_NAME": "COSMOS 2251 DEB", "OBJECT_ID": "1993-036BRM", "EPOCH": "2025-12-17T08:11:30.244992", "MEAN_MOTION": 14.7702463, "ECCENTRICITY": 0.00659373, "INCLINATION": 74.0086, "RA_OF_ASC_NODE": 197.7207, "ARG_OF_PERICENTER": 324.2561, "MEAN_ANOMALY": 214.9327, "EPHEMERIS_TYPE": 0, "CLASSIFICATION_TYPE": "U", "NORAD_CAT_ID": 38055, "ELEMENT_SET_NO": 999, "REV_AT_EPOCH": 60750, "BSTAR": 0.00054119161, "MEAN_MOTION_DOT": 3.922e-05, "MEAN_MOTION_DDOT": 0}, "tle": {"line1": "1 38055U 93036BRM 25351.34132228  .00003922  00000+0  54119-3 0  9991", "line2": "2 38055  74.0086 197.7207 0065937 324.2561 214.9327 14.77024630607504"}}, "geometry": {"type": "Point", "coordinates": [-164.09658926316175, 12.700625275752781]}}, {"type": "Feature", "properties": {"norad_id": 38060, "name": "COSMOS 2251 DEB", "group": "cosmos-2251-debris", "lat": -62.11150921931767, "lon": 133.80225239147606, "alt_km": 718.1527385805111, "timestamp": "2025-12-20T03:42:47.792291+00:00", "meta": {"OBJECT_NAME": "COSMOS 2251 DEB", "OBJECT_ID": "1993-036BRS", "EPOCH": "2025-12-18T12:51:56.479104", "MEAN_MOTION": 14.63889679, "ECCENTRICITY": 0.00583817, "INCLINATION": 74.0432, "RA_OF_ASC_NODE": 284.1799, "ARG_OF_PERICENTER": 28.687, "MEAN_ANOMALY": 331.7487, "EPHEMERIS_TYPE": 0, "CLASSIFICATION_TYPE": "U", "NORAD_CAT_ID": 38060, "ELEMENT_SET_NO": 999, "REV_AT_EPOCH": 72049, "BSTAR": 0.00043764509, "MEAN_MOTION_DOT": 2.314e-05, "MEAN_MOTION_DDOT": 0}, "tle": {"line1": "1 38060U 93036BRS 25352.53607036  .00002314  00000+0  43765-3 0  9992", "line2": "2 38060  74.0432 284.1799 0058381  28.6870 331.7487 14.63889679720491"}}, "geometry": {"type": "Point", "coordinates": [133.80225239147606, -62.11150921931767]}}, {"type": "Feature", "properties": {"norad_id": 38062, "name": "COSMOS 2251 DEB", "group": "cosmos-2251-debris", "lat": -32.0639175638268, "lon": -94.85717422393381, "alt_km": 585.4828460064227, "timestamp": "2025-12-20T03:42:47.792301+00:00", "meta": {"OBJECT_NAME": "COSMOS 2251 DEB", "OBJECT_ID": "1993-036BRU", "EPOCH": "2025-12-17T02:04:28.793568", "MEAN_MOTION": 14.95076851, "ECCENTRICITY": 0.00127653, "INCLINATION": 74.0085, "RA_OF_ASC_NODE": 281.6883, "ARG_OF_PERICENTER": 50.5623, "MEAN_ANOMALY": 328.1429, "EPHEMERIS_TYPE": 0, "CLASSIFICATION_TYPE": "U", "NORAD_CAT_ID": 38062, "ELEMENT_SET_NO": 999, "REV_AT_EPOCH": 63095, "BSTAR": 0.0018936514, "MEAN_MOTION_DOT": 0.00020809, "MEAN_MOTION_DDOT": 0}, "tle": {"line1": "1 38062U 93036BRU 25351.08644437  .00020809  00000+0  18937-2 0  9990", "line2": "2 38062  74.0085 281.6883 0012765  50.5623 328.1429 14.95076851630951"}}, "geometry": {"type": "Point", "coordinates": [-94.85717422393381, -32.0639175638268]}}, {"type": "Feature", "properties": {"norad_id": 38064, "name": "COSMOS 2251 DEB", "group": "cosmos-2251-debris", "lat": -62.07195086512964, "lon": 77.34252985135565, "alt_km": 697.4852016269324, "timestamp": "2025-12-20T03:42:47.792310+00:00", "meta": {"OBJECT_NAME": "COSMOS 2251 DEB", "OBJECT_ID": "1993-036BRW", "EPOCH": "2025-12-19T18:07:41.079648", "MEAN_MOTION": 14.56354752, "ECCENTRICITY": 0.0047209, "INCLINATION": 74.0226, "RA_OF_ASC_NODE": 110.8167, "ARG_OF_PERICENTER": 229.1842, "MEAN_ANOMALY": 130.5224, "EPHEMERIS_TYPE": 0, "CLASSIFICATION_TYPE": "U", "NORAD_CAT_ID": 38064, "ELEMENT_SET_NO": 999, "REV_AT_EPOCH": 71967, "BSTAR": 0.00064458, "MEAN_MOTION_DOT": 2.872e-05, "MEAN_MOTION_DDOT": 0}, "tle": {"line1": "1 38064U 93036BRW 25353.75533657  .00002872  00000+0  64458-3 0  9999", "line2": "2 38064  74.0226 110.8167 0047209 229.1842 130.5224 14.56354752719677"}}, "geometry": {"type": "Point", "coordinates": [77.34252985135565, -62.07195086512964]}}, {"type": "Feature", "properties": {"norad_id": 38067, "name": "COSMOS 2251 DEB", "group": "cosmos-2251-debris", "lat": 39.26598342901096, "lon": -86.1346343717311, "alt_km": 637.1579867772698, "timestamp": "2025-12-20T03:42:47.792320+00:00", "meta": {"OBJECT_NAME": "COSMOS 2251 DEB", "OBJECT_ID": "1993-036BRZ", "EPOCH": "2025-12-14T13:35:01.091904", "MEAN_MOTION": 14.61135602, "ECCENTRICITY": 0.00694851, "INCLINATION": 74.0173, "RA_OF_ASC_NODE": 271.0073, "ARG_OF_PERICENTER": 58.167, "MEAN_ANOMALY": 117.7661, "EPHEMERIS_TYPE": 0, "CLASSIFICATION_TYPE": "U", "NORAD_CAT_ID": 38067, "ELEMENT_SET_NO": 999, "REV_AT_EPOCH": 62582, "BSTAR": 0.00041702153, "MEAN_MOTION_DOT": 2.092e-05, "MEAN_MOTION_DDOT": 0}, "tle": {"line1": "1 38067U 93036BRZ 25348.56598486  .00002092  00000+0  41702-3 0  9997", "line2": "2 38067  74.0173 271.0073 0069485  58.1670 117.7661 14.61135602625828"}}, "geometry": {"type": "Point", "coordinates": [-86.1346343717311, 39.26598342901096]}}, {"type": "Feature", "properties": {"norad_id": 38068, "name": "COSMOS 2251 DEB", "group": "cosmos-2251-debris", "lat": -32.882065527991934, "lon": 125.30692490079382, "alt_km": 794.3355161342206, "timestamp": "2025-12-20T03:42:47.792330+00:00", "meta": {"OBJECT_NAME": "COSMOS 2251 DEB", "OBJECT_ID": "1993-036BSA", "EPOCH": "2025-11-26T00:12:22.263264", "MEAN_MOTION": 14.35960004, "ECCENTRICITY": 0.00240903, "INCLINATION": 74.0219, "RA_OF_ASC_NODE": 338.9788, "ARG_OF_PERICENTER": 72.1007, "MEAN_ANOMALY": 288.2769, "EPHEMERIS_TYPE": 0, "CLASSIFICATION_TYPE": "U", "NORAD_CAT_ID": 38068, "ELEMENT_SET_NO": 999, "REV_AT_EPOCH": 66406, "BSTAR": 0.00028750999, "MEAN_MOTION_DOT": 8.11e-06, "MEAN_MOTION_DDOT": 0}, "tle": {"line1": "1 38068U 93036BSA 25330.00859101  .00000811  00000+0  28751-3 0  9998", "line2": "2 38068  74.0219 338.9788 0024090  72.1007 288.2769 14.35960004664064"}}, "geometry": {"type": "Point", "coordinates": [125.30692490079382, -32.882065527991934]}}, {"type": "Feature", "properties": {"norad_id": 38197, "name": "COSMOS 2251 DEB", "group": "cosmos-2251-debris", "lat": 36.61974011505763, "lon": 150.11733519707334, "alt_km": 622.8632188888969, "timestamp": "2025-12-20T03:42:47.792340+00:00", "meta": {"OBJECT_NAME": "COSMOS 2251 DEB", "OBJECT_ID": "1993-036BSM", "EPOCH": "2025-12-19T05:53:32.639424", "MEAN_MOTION": 14.74334957, "ECCENTRICITY": 0.0125223, "INCLINATION": 73.937, "RA_OF_ASC_NODE": 344.2677, "ARG_OF_PERICENTER": 220.1663, "MEAN_ANOMALY": 139.0206, "EPHEMERIS_TYPE": 0, "CLASSIFICATION_TYPE": "U", "NORAD_CAT_ID": 38197, "ELEMENT_SET_NO": 999, "REV_AT_EPOCH": 85851, "BSTAR": 0.0022874, "MEAN_MOTION_DOT": 0.00017202, "MEAN_MOTION_DDOT": 0}, "tle": {"line1": "1 38197U 93036BSM 25353.24551666  .00017202  00000+0  22874-2 0  9998", "line2": "2 38197  73.9370 344.2677 0125223 220.1663 139.0206 14.74334957858512"}}, "geometry": {"type": "Point", "coordinates": [150.11733519707334, 36.61974011505763]}}, {"type": "Feature", "properties": {"norad_id": 38199, "name": "COSMOS 2251 DEB", "group": "cosmos-2251-debris", "lat": -64.74087758881875, "lon": -92.4129965286178, "alt_km": 990.4376761229387, "timestamp": "2025-12-20T03:42:47.792350+00:00", "meta": {"OBJECT_NAME": "COSMOS 2251 DEB", "OBJECT_ID": "1993-036BSP", "EPOCH": "2025-12-18T20:33:26.116992", "MEAN_MOTION": 13.64802181, "ECCENTRICITY": 0.0369926, "INCLINATION": 73.9559, "RA_OF_ASC_NODE": 52.1388, "ARG_OF_PERICENTER": 337.4029, "MEAN_ANOMALY": 21.1146, "EPHEMERIS_TYPE": 0, "CLASSIFICATION_TYPE": "U", "NORAD_CAT_ID": 38199, "ELEMENT_SET_NO": 999, "REV_AT_EPOCH": 61105, "BSTAR": 0.00049100524, "MEAN_MOTION_DOT": 6.08e-06, "MEAN_MOTION_DDOT": 0}, "tle": {"line1": "1 38199U 93036BSP 25352.85655228  .00000608  00000+0  49101-3 0  9990", "line2": "2 38199  73.9559  52.1388 0369926 337.4029  21.1146 13.64802181611052"}}, "geometry": {"type": "Point", "coordinates": [-92.4129965286178, -64.74087758881875]}}, {"type": "Feature", "properties": {"norad_id": 38208, "name": "COSMOS 2251 DEB", "group": "cosmos-2251-debris", "lat": -6.043281037830593, "lon": 62.448527393596784, "alt_km": 620.7475956212529, "timestamp": "2025-12-20T03:42:47.792361+00:00", "meta": {"OBJECT_NAME": "COSMOS 2251 DEB", "OBJECT_ID": "1993-036BSY", "EPOCH": "2025-12-16T00:13:39.722592", "MEAN_MOTION": 14.84023361, "ECCENTRICITY": 0.00017369, "INCLINATION": 74.0064, "RA_OF_ASC_NODE": 72.4172, "ARG_OF_PERICENTER": 150.2716, "MEAN_ANOMALY": 26.1687, "EPHEMERIS_TYPE": 0, "CLASSIFICATION_TYPE": "U", "NORAD_CAT_ID": 38208, "ELEMENT_SET_NO": 999, "REV_AT_EPOCH": 71207, "BSTAR": 0.0016436813, "MEAN_MOTION_DOT": 0.00013687, "MEAN_MOTION_DDOT": 0}, "tle": {"line1": "1 38208U 93036BSY 25350.00948753  .00013687  00000+0  16437-2 0  9990", "line2": "2 38208  74.0064  72.4172 0001736 150.2716  26.1687 14.84023361712075"}}, "geometry": {"type": "Point", "coordinates": [62.448527393596784, -6.043281037830593]}}]}